HIMAWARI-8              
1 40267U 14060A   24050.92407260 -.00000285  00000+0  00000+0 0  9995
2 40267   0.0241 170.6719 0001430 161.7589 290.2068  1.00269966 34254
